{
  "norad_id": 20580,
  "name": "HST",
  "history": [
    {
      "epoch": "2026-05-03T09:52:41.693088Z",
      "apogee_km": 476.37633242984066,
      "perigee_km": 473.70112675203836,
      "latitude_deg": 2.4258778280522007e-05,
      "longitude_deg": 16.982762185106953,
      "height_km": 471.99559170764996,
      "semi_major_axis_km": 6853.175729590939,
      "eccentricity": 0.00019518,
      "inclination_deg": 28.4763,
      "raan_deg": 26.4721,
      "arg_perigee_deg": 14.1929,
      "mean_anomaly_deg": 345.8722,
      "mean_motion_rev_day": 15.30259061
    },
    {
      "epoch": "2026-05-04T09:21:22.325472Z",
      "apogee_km": 476.38260651581095,
      "perigee_km": 473.61805091740644,
      "latitude_deg": -1.488062206644683e-05,
      "longitude_deg": 17.168580379918488,
      "height_km": 471.99261639299056,
      "semi_major_axis_km": 6853.137328716608,
      "eccentricity": 0.0002017,
      "inclination_deg": 28.4764,
      "raan_deg": 19.7915,
      "arg_perigee_deg": 24.1737,
      "mean_anomaly_deg": 335.8953,
      "mean_motion_rev_day": 15.30271923
    },
    {
      "epoch": "2026-05-05T18:13:29.809920Z",
      "apogee_km": 476.35045985243505,
      "perigee_km": 473.5174003299362,
      "latitude_deg": 3.732311875282032e-05,
      "longitude_deg": -126.56548563947912,
      "height_km": 472.0692481217663,
      "semi_major_axis_km": 6853.070930091186,
      "eccentricity": 0.0002067,
      "inclination_deg": 28.4765,
      "raan_deg": 10.4384,
      "arg_perigee_deg": 37.9111,
      "mean_anomaly_deg": 322.1631,
      "mean_motion_rev_day": 15.30294163
    },
    {
      "epoch": "2026-05-06T19:16:03.057888Z",
      "apogee_km": 476.3467446845234,
      "perigee_km": 473.44517053027266,
      "latitude_deg": -4.225916535606113e-06,
      "longitude_deg": -150.35806076359975,
      "height_km": 472.17844217394133,
      "semi_major_axis_km": 6853.032957607398,
      "eccentricity": 0.0002117,
      "inclination_deg": 28.4762,
      "raan_deg": 3.3129,
      "arg_perigee_deg": 48.0368,
      "mean_anomaly_deg": 312.0408,
      "mean_motion_rev_day": 15.30306882
    },
    {
      "epoch": "2026-05-07T17:10:46.583616Z",
      "apogee_km": 476.34183380924696,
      "perigee_km": 473.3895602473667,
      "latitude_deg": 1.5494884702001163e-05,
      "longitude_deg": -126.17498261381554,
      "height_km": 472.29535749622124,
      "semi_major_axis_km": 6853.002697028306,
      "eccentricity": 0.0002154,
      "inclination_deg": 28.4762,
      "raan_deg": 357.0772,
      "arg_perigee_deg": 56.1313,
      "mean_anomaly_deg": 303.9488,
      "mean_motion_rev_day": 15.30317018
    }
  ]
}